SL-14 R/B               
1 21423U 91042B   26009.19889508  .00000418  00000+0  49918-4 0  9990
2 21423  82.4935 275.9771 0018579  77.5988 282.7304 14.81769589844265
ERS-1                   
1 21574U 91050A   26009.61209415  .00000386  00000+0  13829-3 0  9991
2 21574  98.7898  26.3632 0032280  19.4309 340.8101 14.39392494807238
ARIANE 40 R/B           
1 21610U 91050F   26009.59538912  .00000350  00000+0  11734-3 0  9990
2 21610  98.2125  64.0154 0002084 241.4908 118.6072 14.42840998810475
INTERCOSMOS 25          
1 21819U 91086A   26009.62382060  .00001788  00000+0  35554-3 0  9997
2 21819  82.6088 345.7079 1485962 244.2526  99.8019 12.11841630489532
SL-8 R/B                
1 21876U 92008B   26009.62562709  .00000110  00000+0  97711-4 0  9997
2 21876  82.9287 311.7065 0033578 301.1418 232.8597 13.75965503701298
SL-8 R/B                
1 21938U 92020B   26009.62935142  .00000174  00000+0  16375-3 0  9991
2 21938  82.9291 197.6063 0030213 102.2694 326.8235 13.75536207693018
USA 81                  
1 21949U 92023A   26009.48878823  .00000257  00000+0  87867-4 0  9999
2 21949  85.0094 165.5730 0001421 116.0669 244.0670 14.32340474 86310
COSMOS 2219             
1 22219U 92076A   26009.59579701  .00000154  00000+0  10533-3 0  9994
2 22219  71.0613 141.6028 0020386 288.5180  71.3728 14.14080377710022
SL-16 R/B               
1 22220U 92076B   26009.62653214  .00000247  00000+0  14712-3 0  9998
2 22220  71.0014 312.7884 0013314 195.2437 338.8753 14.16846829713466
COSMOS 2221             
1 22236U 92080A   26009.64593733  .00002866  00000+0  25337-3 0  9995
2 22236  82.5058 335.6119 0015649  36.8801 323.3493 14.95907466771962
SL-16 R/B               
1 22285U 92093B   26009.65907587  .00000111  00000+0  81382-4 0  9994
2 22285  71.0215 128.1890 0003356   5.3998 354.7160 14.15434304704801
COSMOS 2228             
1 22286U 92094A   26009.56714984  .00002276  00000+0  19547-3 0  9990
2 22286  82.5190 293.9091 0019039 136.5152 223.7576 14.96889713767216
