CCSDS_OMM_VERS = 2.0
CREATION_DATE  = 
ORIGINATOR     = 

OBJECT_NAME    = SL-14 R/B
OBJECT_ID      = 1991-042B
CENTER_NAME    = EARTH
REF_FRAME      = TEME
TIME_SYSTEM    = UTC
MEAN_ELEMENT_THEORY = SGP/SGP4

EPOCH          = 2026-01-09T04:46:24.534912
MEAN_MOTION    = 14.81769589
ECCENTRICITY   = .0018579
INCLINATION    = 82.4935
RA_OF_ASC_NODE = 275.9771
ARG_OF_PERICENTER = 77.5988
MEAN_ANOMALY   = 282.7304

EPHEMERIS_TYPE = 0
CLASSIFICATION_TYPE = U
NORAD_CAT_ID   = 21423
ELEMENT_SET_NO = 999
REV_AT_EPOCH   = 84426
BSTAR          = .49918E-4
MEAN_MOTION_DOT = .418E-5
MEAN_MOTION_DDOT = 0

CCSDS_OMM_VERS = 2.0
CREATION_DATE  = 
ORIGINATOR     = 

OBJECT_NAME    = ERS-1
OBJECT_ID      = 1991-050A
CENTER_NAME    = EARTH
REF_FRAME      = TEME
TIME_SYSTEM    = UTC
MEAN_ELEMENT_THEORY = SGP/SGP4

EPOCH          = 2026-01-09T14:41:24.934560
MEAN_MOTION    = 14.39392494
ECCENTRICITY   = .00322802
INCLINATION    = 98.7898
RA_OF_ASC_NODE = 26.3632
ARG_OF_PERICENTER = 19.4309
MEAN_ANOMALY   = 340.8101

EPHEMERIS_TYPE = 0
CLASSIFICATION_TYPE = U
NORAD_CAT_ID   = 21574
ELEMENT_SET_NO = 999
REV_AT_EPOCH   = 80723
BSTAR          = .13828501E-3
MEAN_MOTION_DOT = .386E-5
MEAN_MOTION_DDOT = 0

CCSDS_OMM_VERS = 2.0
CREATION_DATE  = 
ORIGINATOR     = 

OBJECT_NAME    = ARIANE 40 R/B
OBJECT_ID      = 1991-050F
CENTER_NAME    = EARTH
REF_FRAME      = TEME
TIME_SYSTEM    = UTC
MEAN_ELEMENT_THEORY = SGP/SGP4

EPOCH          = 2026-01-09T14:17:21.619968
MEAN_MOTION    = 14.42840998
ECCENTRICITY   = .00020846
INCLINATION    = 98.2125
RA_OF_ASC_NODE = 64.0154
ARG_OF_PERICENTER = 241.4908
MEAN_ANOMALY   = 118.6072

EPHEMERIS_TYPE = 0
CLASSIFICATION_TYPE = U
NORAD_CAT_ID   = 21610
ELEMENT_SET_NO = 999
REV_AT_EPOCH   = 81047
BSTAR          = .11733818E-3
MEAN_MOTION_DOT = .35E-5
MEAN_MOTION_DDOT = 0

CCSDS_OMM_VERS = 2.0
CREATION_DATE  = 
ORIGINATOR     = 

OBJECT_NAME    = INTERCOSMOS 25
OBJECT_ID      = 1991-086A
CENTER_NAME    = EARTH
REF_FRAME      = TEME
TIME_SYSTEM    = UTC
MEAN_ELEMENT_THEORY = SGP/SGP4

EPOCH          = 2026-01-09T14:58:18.099840
MEAN_MOTION    = 12.11841630
ECCENTRICITY   = .14859622
INCLINATION    = 82.6088
RA_OF_ASC_NODE = 345.7079
ARG_OF_PERICENTER = 244.2526
MEAN_ANOMALY   = 99.8019

EPHEMERIS_TYPE = 0
CLASSIFICATION_TYPE = U
NORAD_CAT_ID   = 21819
ELEMENT_SET_NO = 999
REV_AT_EPOCH   = 48953
BSTAR          = .35553683E-3
MEAN_MOTION_DOT = .1788E-4
MEAN_MOTION_DDOT = 0

CCSDS_OMM_VERS = 2.0
CREATION_DATE  = 
ORIGINATOR     = 

OBJECT_NAME    = SL-8 R/B
OBJECT_ID      = 1992-008B
CENTER_NAME    = EARTH
REF_FRAME      = TEME
TIME_SYSTEM    = UTC
MEAN_ELEMENT_THEORY = SGP/SGP4

EPOCH          = 2026-01-09T15:00:54.180576
MEAN_MOTION    = 13.75965503
ECCENTRICITY   = .00335788
INCLINATION    = 82.9287
RA_OF_ASC_NODE = 311.7065
ARG_OF_PERICENTER = 301.1418
MEAN_ANOMALY   = 232.8597

EPHEMERIS_TYPE = 0
CLASSIFICATION_TYPE = U
NORAD_CAT_ID   = 21876
ELEMENT_SET_NO = 999
REV_AT_EPOCH   = 70129
BSTAR          = .97710722E-4
MEAN_MOTION_DOT = .11E-5
MEAN_MOTION_DDOT = 0

CCSDS_OMM_VERS = 2.0
CREATION_DATE  = 
ORIGINATOR     = 

OBJECT_NAME    = SL-8 R/B
OBJECT_ID      = 1992-020B
CENTER_NAME    = EARTH
REF_FRAME      = TEME
TIME_SYSTEM    = UTC
MEAN_ELEMENT_THEORY = SGP/SGP4

EPOCH          = 2026-01-09T15:06:15.962688
MEAN_MOTION    = 13.75536207
ECCENTRICITY   = .00302131
INCLINATION    = 82.9291
RA_OF_ASC_NODE = 197.6063
ARG_OF_PERICENTER = 102.2694
MEAN_ANOMALY   = 326.8235

EPHEMERIS_TYPE = 0
CLASSIFICATION_TYPE = U
NORAD_CAT_ID   = 21938
ELEMENT_SET_NO = 999
REV_AT_EPOCH   = 69301
BSTAR          = .16374633E-3
MEAN_MOTION_DOT = .174E-5
MEAN_MOTION_DDOT = 0

CCSDS_OMM_VERS = 2.0
CREATION_DATE  = 
ORIGINATOR     = 

OBJECT_NAME    = USA 81
OBJECT_ID      = 1992-023A
CENTER_NAME    = EARTH
REF_FRAME      = TEME
TIME_SYSTEM    = UTC
MEAN_ELEMENT_THEORY = SGP/SGP4

EPOCH          = 2026-01-09T11:43:51.303072
MEAN_MOTION    = 14.32340474
ECCENTRICITY   = .00014217
INCLINATION    = 85.0094
RA_OF_ASC_NODE = 165.5730
ARG_OF_PERICENTER = 116.0669
MEAN_ANOMALY   = 244.0670

EPHEMERIS_TYPE = 0
CLASSIFICATION_TYPE = U
NORAD_CAT_ID   = 21949
ELEMENT_SET_NO = 999
REV_AT_EPOCH   = 8631
BSTAR          = .87866974E-4
MEAN_MOTION_DOT = .257E-5
MEAN_MOTION_DDOT = 0

CCSDS_OMM_VERS = 2.0
CREATION_DATE  = 
ORIGINATOR     = 

OBJECT_NAME    = COSMOS 2219
OBJECT_ID      = 1992-076A
CENTER_NAME    = EARTH
REF_FRAME      = TEME
TIME_SYSTEM    = UTC
MEAN_ELEMENT_THEORY = SGP/SGP4

EPOCH          = 2026-01-09T14:17:56.861664
MEAN_MOTION    = 14.14080377
ECCENTRICITY   = .00203867
INCLINATION    = 71.0613
RA_OF_ASC_NODE = 141.6028
ARG_OF_PERICENTER = 288.5180
MEAN_ANOMALY   = 71.3728

EPHEMERIS_TYPE = 0
CLASSIFICATION_TYPE = U
NORAD_CAT_ID   = 22219
ELEMENT_SET_NO = 999
REV_AT_EPOCH   = 71002
BSTAR          = .10532779E-3
MEAN_MOTION_DOT = .154E-5
MEAN_MOTION_DDOT = 0

CCSDS_OMM_VERS = 2.0
CREATION_DATE  = 
ORIGINATOR     = 

OBJECT_NAME    = SL-16 R/B
OBJECT_ID      = 1992-076B
CENTER_NAME    = EARTH
REF_FRAME      = TEME
TIME_SYSTEM    = UTC
MEAN_ELEMENT_THEORY = SGP/SGP4

EPOCH          = 2026-01-09T15:02:12.376896
MEAN_MOTION    = 14.16846829
ECCENTRICITY   = .00133144
INCLINATION    = 71.0014
RA_OF_ASC_NODE = 312.7884
ARG_OF_PERICENTER = 195.2437
MEAN_ANOMALY   = 338.8753

EPHEMERIS_TYPE = 0
CLASSIFICATION_TYPE = U
NORAD_CAT_ID   = 22220
ELEMENT_SET_NO = 999
REV_AT_EPOCH   = 71346
BSTAR          = .14712234E-3
MEAN_MOTION_DOT = .247E-5
MEAN_MOTION_DDOT = 0

CCSDS_OMM_VERS = 2.0
CREATION_DATE  = 
ORIGINATOR     = 

OBJECT_NAME    = COSMOS 2221
OBJECT_ID      = 1992-080A
CENTER_NAME    = EARTH
REF_FRAME      = TEME
TIME_SYSTEM    = UTC
MEAN_ELEMENT_THEORY = SGP/SGP4

EPOCH          = 2026-01-09T15:30:08.985312
MEAN_MOTION    = 14.95907466
ECCENTRICITY   = .00156491
INCLINATION    = 82.5058
RA_OF_ASC_NODE = 335.6119
ARG_OF_PERICENTER = 36.8801
MEAN_ANOMALY   = 323.3493

EPHEMERIS_TYPE = 0
CLASSIFICATION_TYPE = U
NORAD_CAT_ID   = 22236
ELEMENT_SET_NO = 999
REV_AT_EPOCH   = 77196
BSTAR          = .25337248E-3
MEAN_MOTION_DOT = .2866E-4
MEAN_MOTION_DDOT = 0

CCSDS_OMM_VERS = 2.0
CREATION_DATE  = 
ORIGINATOR     = 

OBJECT_NAME    = SL-16 R/B
OBJECT_ID      = 1992-093B
CENTER_NAME    = EARTH
REF_FRAME      = TEME
TIME_SYSTEM    = UTC
MEAN_ELEMENT_THEORY = SGP/SGP4

EPOCH          = 2026-01-09T15:49:04.155168
MEAN_MOTION    = 14.15434304
ECCENTRICITY   = .00033561
INCLINATION    = 71.0215
RA_OF_ASC_NODE = 128.1890
ARG_OF_PERICENTER = 5.3998
MEAN_ANOMALY   = 354.7160

EPHEMERIS_TYPE = 0
CLASSIFICATION_TYPE = U
NORAD_CAT_ID   = 22285
ELEMENT_SET_NO = 999
REV_AT_EPOCH   = 70480
BSTAR          = .81381788E-4
MEAN_MOTION_DOT = .111E-5
MEAN_MOTION_DDOT = 0

CCSDS_OMM_VERS = 2.0
CREATION_DATE  = 
ORIGINATOR     = 

OBJECT_NAME    = COSMOS 2228
OBJECT_ID      = 1992-094A
CENTER_NAME    = EARTH
REF_FRAME      = TEME
TIME_SYSTEM    = UTC
MEAN_ELEMENT_THEORY = SGP/SGP4

EPOCH          = 2026-01-09T13:36:41.746176
MEAN_MOTION    = 14.96889713
ECCENTRICITY   = .00190391
INCLINATION    = 82.5190
RA_OF_ASC_NODE = 293.9091
ARG_OF_PERICENTER = 136.5152
MEAN_ANOMALY   = 223.7576

EPHEMERIS_TYPE = 0
CLASSIFICATION_TYPE = U
NORAD_CAT_ID   = 22286
ELEMENT_SET_NO = 999
REV_AT_EPOCH   = 76721
BSTAR          = .19547294E-3
MEAN_MOTION_DOT = .2276E-4
MEAN_MOTION_DDOT = 0

